[
    {
        "Altitude(m)": 709258.4689838107,
        "Argument of Periapsis(deg)": 0.0011390121186627068,
        "Eccentricity": 0.0,
        "Inclination(deg)": 45.0,
        "Latitude(deg)": -23.380923750050673,
        "Longitude(deg)": -9.580792182851024,
        "Mean Anomaly(deg)": -146.1193783352519,
        "RAAN(deg)": 244.99892480585416,
        "Satellite Name": "Constellation 1 1091",
        "Satellite Number": 1091,
        "Semi-Major Axis(m)": 7083131.272910544,
        "Time(s)": 19
    },
    {
        "Altitude(m)": 709272.1140340577,
        "Argument of Periapsis(deg)": 0.0011989601249081123,
        "Eccentricity": 0.0,
        "Inclination(deg)": 45.0,
        "Latitude(deg)": -23.419821867869825,
        "Longitude(deg)": -9.53413656243429,
        "Mean Anomaly(deg)": -146.05867719500205,
        "RAAN(deg)": 244.9988682166886,
        "Satellite Name": "Constellation 1 1091",
        "Satellite Number": 1091,
        "Semi-Major Axis(m)": 7083131.272910544,
        "Time(s)": 20
    },
    {
        "Altitude(m)": 709285.7633923256,
        "Argument of Periapsis(deg)": 0.001258908131153518,
        "Eccentricity": 0.0,
        "Inclination(deg)": 45.0,
        "Latitude(deg)": -23.458703198687754,
        "Longitude(deg)": -9.487451390564628,
        "Mean Anomaly(deg)": -145.99797605475217,
        "RAAN(deg)": 244.99881162752305,
        "Satellite Name": "Constellation 1 1091",
        "Satellite Number": 1091,
        "Semi-Major Axis(m)": 7083131.272910544,
        "Time(s)": 21
    },
    {
        "Altitude(m)": 709299.4170128079,
        "Argument of Periapsis(deg)": 0.0013188561373989236,
        "Eccentricity": 0.0,
        "Inclination(deg)": 45.0,
        "Latitude(deg)": -23.497567702286116,
        "Longitude(deg)": -9.440736775609158,
        "Mean Anomaly(deg)": -145.93727491450224,
        "RAAN(deg)": 244.9987550383575,
        "Satellite Name": "Constellation 1 1091",
        "Satellite Number": 1091,
        "Semi-Major Axis(m)": 7083131.272910544,
        "Time(s)": 22
    },
    {
        "Altitude(m)": 709313.0748496597,
        "Argument of Periapsis(deg)": 0.0013788041436443293,
        "Eccentricity": 0.0,
        "Inclination(deg)": 45.0,
        "Latitude(deg)": -23.53641533838781,
        "Longitude(deg)": -9.393992321629218,
        "Mean Anomaly(deg)": -145.87657377425228,
        "RAAN(deg)": 244.99869844919195,
        "Satellite Name": "Constellation 1 1091",
        "Satellite Number": 1091,
        "Semi-Major Axis(m)": 7083131.272910544,
        "Time(s)": 23
    },
    {
        "Altitude(m)": 709326.7368570169,
        "Argument of Periapsis(deg)": 0.001438752149889735,
        "Eccentricity": 0.0,
        "Inclination(deg)": 45.0,
        "Latitude(deg)": -23.575246066658977,
        "Longitude(deg)": -9.347218136962288,
        "Mean Anomaly(deg)": -145.81587263400237,
        "RAAN(deg)": 244.99864186002634,
        "Satellite Name": "Constellation 1 1091",
        "Satellite Number": 1091,
        "Semi-Major Axis(m)": 7083131.272910544,
        "Time(s)": 24
    },
    {
        "Altitude(m)": 709340.4029889753,
        "Argument of Periapsis(deg)": 0.0014987001561351404,
        "Eccentricity": 0.0,
        "Inclination(deg)": 45.0,
        "Latitude(deg)": -23.614059846707573,
        "Longitude(deg)": -9.300414161834041,
        "Mean Anomaly(deg)": -145.75517149375253,
        "RAAN(deg)": 244.99858527086076,
        "Satellite Name": "Constellation 1 1091",
        "Satellite Number": 1091,
        "Semi-Major Axis(m)": 7083131.272910544,
        "Time(s)": 25
    },
    {
        "Altitude(m)": 709354.073199615,
        "Argument of Periapsis(deg)": 0.001558648162380546,
        "Eccentricity": 0.0,
        "Inclination(deg)": 45.0,
        "Latitude(deg)": -23.652856638083794,
        "Longitude(deg)": -9.253580336455634,
        "Mean Anomaly(deg)": -145.6944703535026,
        "RAAN(deg)": 244.9985286816952,
        "Satellite Name": "Constellation 1 1091",
        "Satellite Number": 1091,
        "Semi-Major Axis(m)": 7083131.272910544,
        "Time(s)": 26
    },
    {
        "Altitude(m)": 709367.7474429721,
        "Argument of Periapsis(deg)": 0.0016185961686259519,
        "Eccentricity": 0.0,
        "Inclination(deg)": 45.0,
        "Latitude(deg)": -23.69163640027944,
        "Longitude(deg)": -9.206716601024437,
        "Mean Anomaly(deg)": -145.63376921325272,
        "RAAN(deg)": 244.99847209252965,
        "Satellite Name": "Constellation 1 1091",
        "Satellite Number": 1091,
        "Semi-Major Axis(m)": 7083131.272910544,
        "Time(s)": 27
    },
    {
        "Altitude(m)": 709381.425673068,
        "Argument of Periapsis(deg)": 0.0016785441748713573,
        "Eccentricity": 0.0,
        "Inclination(deg)": 45.0,
        "Latitude(deg)": -23.730399092728344,
        "Longitude(deg)": -9.159822895723424,
        "Mean Anomaly(deg)": -145.57306807300284,
        "RAAN(deg)": 244.9984155033641,
        "Satellite Name": "Constellation 1 1091",
        "Satellite Number": 1091,
        "Semi-Major Axis(m)": 7083131.272910544,
        "Time(s)": 28
    },
    {
        "Altitude(m)": 709395.1078438873,
        "Argument of Periapsis(deg)": 0.001738492181116763,
        "Eccentricity": 0.0,
        "Inclination(deg)": 45.0,
        "Latitude(deg)": -23.769144674806082,
        "Longitude(deg)": -9.112899160721868,
        "Mean Anomaly(deg)": -145.5123669327529,
        "RAAN(deg)": 244.99835891419852,
        "Satellite Name": "Constellation 1 1091",
        "Satellite Number": 1091,
        "Semi-Major Axis(m)": 7083131.272910544,
        "Time(s)": 29
    },
    {
        "Altitude(m)": 709408.7939093845,
        "Argument of Periapsis(deg)": 0.0017984401873621684,
        "Eccentricity": 0.0,
        "Inclination(deg)": 45.0,
        "Latitude(deg)": -23.807873105829962,
        "Longitude(deg)": -9.065945504272898,
        "Mean Anomaly(deg)": -145.45166579250304,
        "RAAN(deg)": 244.9983023250329,
        "Satellite Name": "Constellation 1 1091",
        "Satellite Number": 1091,
        "Semi-Major Axis(m)": 7083131.272910544,
        "Time(s)": 30
    },
    {
        "Altitude(m)": 709422.4838235027,
        "Argument of Periapsis(deg)": 0.0018583881936075745,
        "Eccentricity": 0.0,
        "Inclination(deg)": 45.0,
        "Latitude(deg)": -23.846584345057913,
        "Longitude(deg)": -9.018961530324685,
        "Mean Anomaly(deg)": -145.3909646522532,
        "RAAN(deg)": 244.99824573586736,
        "Satellite Name": "Constellation 1 1091",
        "Satellite Number": 1091,
        "Semi-Major Axis(m)": 7083131.272910544,
        "Time(s)": 31
    },
    {
        "Altitude(m)": 709436.1775401306,
        "Argument of Periapsis(deg)": 0.0019183361998529795,
        "Eccentricity": 0.0,
        "Inclination(deg)": 45.0,
        "Latitude(deg)": -23.88527835169036,
        "Longitude(deg)": -8.971947347103653,
        "Mean Anomaly(deg)": -145.3302635120032,
        "RAAN(deg)": 244.9981891467018,
        "Satellite Name": "Constellation 1 1091",
        "Satellite Number": 1091,
        "Semi-Major Axis(m)": 7083131.272910544,
        "Time(s)": 32
    },
    {
        "Altitude(m)": 709449.8750131589,
        "Argument of Periapsis(deg)": 0.0019782842060983856,
        "Eccentricity": 0.0,
        "Inclination(deg)": 45.0,
        "Latitude(deg)": -23.9239550848685,
        "Longitude(deg)": -8.92490289472638,
        "Mean Anomaly(deg)": -145.26956237175327,
        "RAAN(deg)": 244.99813255753625,
        "Satellite Name": "Constellation 1 1091",
        "Satellite Number": 1091,
        "Semi-Major Axis(m)": 7083131.272910544,
        "Time(s)": 33
    },
    {
        "Altitude(m)": 709463.5761964238,
        "Argument of Periapsis(deg)": 0.0020382322123437906,
        "Eccentricity": 0.0,
        "Inclination(deg)": 45.0,
        "Latitude(deg)": -23.962614503674683,
        "Longitude(deg)": -8.877828113296792,
        "Mean Anomaly(deg)": -145.20886123150342,
        "RAAN(deg)": 244.99807596837067,
        "Satellite Name": "Constellation 1 1091",
        "Satellite Number": 1091,
        "Semi-Major Axis(m)": 7083131.272910544,
        "Time(s)": 34
    },
    {
        "Altitude(m)": 709477.2810437497,
        "Argument of Periapsis(deg)": 0.002098180218589197,
        "Eccentricity": 0.0,
        "Inclination(deg)": 45.0,
        "Latitude(deg)": -24.00125656713255,
        "Longitude(deg)": -8.830722942906318,
        "Mean Anomaly(deg)": -145.14816009125352,
        "RAAN(deg)": 244.9980193792051,
        "Satellite Name": "Constellation 1 1091",
        "Satellite Number": 1091,
        "Semi-Major Axis(m)": 7083131.272910544,
        "Time(s)": 35
    },
    {
        "Altitude(m)": 709490.9895089346,
        "Argument of Periapsis(deg)": 0.002158128224834602,
        "Eccentricity": 0.0,
        "Inclination(deg)": 45.0,
        "Latitude(deg)": -24.039881234206476,
        "Longitude(deg)": -8.783587323634213,
        "Mean Anomaly(deg)": -145.08745895100358,
        "RAAN(deg)": 244.99796279003954,
        "Satellite Name": "Constellation 1 1091",
        "Satellite Number": 1091,
        "Semi-Major Axis(m)": 7083131.272910544,
        "Time(s)": 36
    },
    {
        "Altitude(m)": 709504.7015457418,
        "Argument of Periapsis(deg)": 0.002218076231080008,
        "Eccentricity": 0.0,
        "Inclination(deg)": 45.0,
        "Latitude(deg)": -24.078488463802056,
        "Longitude(deg)": -8.736421363645059,
        "Mean Anomaly(deg)": -145.02675781075374,
        "RAAN(deg)": 244.99790620087396,
        "Satellite Name": "Constellation 1 1091",
        "Satellite Number": 1091,
        "Semi-Major Axis(m)": 7083131.272910544,
        "Time(s)": 37
    }
]